0 ARIANE 5 DEB (SYLDA)
1 28887U 05041D   13282.32610108 -.00000044  00000-0  12124-2 0  9294
2 28887 007.0950 137.9778 7169189 211.4053 063.1616 02.25964424 65906
0 ARIANE 5 DEB (SYLDA)
1 28887U 05041D   13283.22107080  .00000177  00000-0  19251-2 0  9311
2 28887 007.1231 137.7651 7170039 211.9539 071.1830 02.25964594 65924
0 ARIANE 5 DEB (SYLDA)
1 28887U 05041D   13283.62477513 -.00000063  00000-0  12751-2 0  9308
2 28887 007.0960 137.4779 7169107 212.3862 039.5838 02.25964669 65938
0 ARIANE 5 DEB (SYLDA)
1 28887U 05041D   13286.72574081 -.00000025  00000-0  17101-2 0  9324
2 28887 007.0973 136.2837 7168726 214.7283 042.1104 02.25965187 66004
0 ARIANE 5 DEB (SYLDA)
1 28887U 05041D   13288.07676951  .00000019  00000-0  19137-2 0  9337
2 28887 007.0986 135.7671 7168675 215.7430 061.1274 02.25965962 66039
0 ARIANE 5 DEB (SYLDA)
1 28887U 05041D   13290.20124422  .00000011  00000-0  13712-2 0  9342
2 28887 007.0996 134.9520 7168585 217.3419 349.3204 02.25966963 66080
0 ARIANE 5 DEB (SYLDA)
1 28887U 05041D   13290.73035653  .00000156  00000-0  17077-2 0  9367
2 28887 007.1270 134.8235 7169642 217.6746 059.7346 02.25966273 66093
0 ARIANE 5 DEB (SYLDA)
1 28887U 05041D   13291.64352860 -.00000020  00000-0  93083-3 0  9352
2 28887 007.1001 134.3985 7168503 218.4273 082.5746 02.25967816 66116
0 ARIANE 5 DEB (SYLDA)
1 28887U 05041D   13292.94551515 -.00000064  00000-0  54465-3 0  9364
2 28887 007.1006 133.8972 7168410 219.4087 061.7044 02.25968764 66148
0 ARIANE 5 DEB (SYLDA)
1 28887U 05041D   13294.70439096 -.00000101  00000-0  45745-3 0  9373
2 28887 007.1011 133.2176 7168267 220.7374 052.5084 02.25969277 66184
